ION SCV-004             
1 50993U 22002K   26068.68892644  .00006538  00000+0  23198-3 0  9998
2 50993  97.2961 128.2294 0007216   1.6783 358.4480 15.29369331230088
STARLINK-33848          
1 63705U 25087J   26068.70170382  .00032256  00000+0  10966-2 0  9994
2 63705  53.1578 219.3476 0001007  66.2696 293.8411 15.30196042 49199
