[{"OBJECT_NAME":"ION SCV-004","OBJECT_ID":"2022-002K","EPOCH":"2026-03-09T16:32:03.244416","MEAN_MOTION":15.29369331,"ECCENTRICITY":0.00072157,"INCLINATION":97.2961,"RA_OF_ASC_NODE":128.2294,"ARG_OF_PERICENTER":1.6783,"MEAN_ANOMALY":358.448,"EPHEMERIS_TYPE":0,"CLASSIFICATION_TYPE":"U","NORAD_CAT_ID":50993,"ELEMENT_SET_NO":999,"REV_AT_EPOCH":23008,"BSTAR":0.00023198467,"MEAN_MOTION_DOT":6.538e-5,"MEAN_MOTION_DDOT":0},{"OBJECT_NAME":"STARLINK-33848","OBJECT_ID":"2025-087J","EPOCH":"2026-03-09T16:50:27.210912","MEAN_MOTION":15.30196042,"ECCENTRICITY":0.00010068,"INCLINATION":53.1578,"RA_OF_ASC_NODE":219.3476,"ARG_OF_PERICENTER":66.2696,"MEAN_ANOMALY":293.8411,"EPHEMERIS_TYPE":0,"CLASSIFICATION_TYPE":"U","NORAD_CAT_ID":63705,"ELEMENT_SET_NO":999,"REV_AT_EPOCH":4919,"BSTAR":0.0010966117,"MEAN_MOTION_DOT":0.00032256,"MEAN_MOTION_DDOT":0}]
